G21
G90
G28
G1 Z5 F500
G0 X38.304 Y13.094
G1 Z0 F500
G1 X37.924 Y14.408 F3000
G1 X37.538 Y15.715 F3000
G1 X37.145 Y17.015 F3000
G1 X36.84 Y17.99 F3000
G1 X36.528 Y18.968 F3000
G1 X36.209 Y19.95 F3000
G1 X35.883 Y20.936 F3000
G1 X20.286 Y20.262 F3000
G1 X19.928 Y19.334 F3000
G1 X19.579 Y18.408 F3000
G1 X19.238 Y17.485 F3000
G1 X18.904 Y16.563 F3000
G1 X18.578 Y15.64 F3000
G1 X18.256 Y14.711 F3000
G1 X17.939 Y13.778 F3000
G1 X17.627 Y12.84 F3000
G1 X13.229 Y13.443 F3000
G1 X13.731 Y14.772 F3000
G1 X14.242 Y16.097 F3000
G1 X14.763 Y17.419 F3000
G1 X15.294 Y18.737 F3000
G1 X15.834 Y20.051 F3000
G1 X16.385 Y21.361 F3000
G1 X16.945 Y22.668 F3000
G1 X17.516 Y23.971 F3000
G1 X18.096 Y25.27 F3000
G1 X18.686 Y26.566 F3000
G1 X19.285 Y27.858 F3000
G1 X20.03 Y29.433 F3000
G1 X20.785 Y31.005 F3000
G1 X21.55 Y32.573 F3000
G1 X22.326 Y34.137 F3000
G1 X23.113 Y35.698 F3000
G1 X23.91 Y37.256 F3000
G1 X24.718 Y38.81 F3000
G1 X25.537 Y40.36 F3000
G1 X26.366 Y41.907 F3000
G1 X31.795 Y41.812 F3000
G1 X32.396 Y40.588 F3000
G1 X32.988 Y39.359 F3000
G1 X33.57 Y38.125 F3000
G1 X34.142 Y36.888 F3000
G1 X34.704 Y35.646 F3000
G1 X35.257 Y34.4 F3000
G1 X35.8 Y33.149 F3000
G1 X36.333 Y31.895 F3000
G1 X36.857 Y30.635 F3000
G1 X37.371 Y29.372 F3000
G1 X37.875 Y28.104 F3000
G1 X38.372 Y26.83 F3000
G1 X38.86 Y25.549 F3000
G1 X39.34 Y24.263 F3000
G1 X39.811 Y22.97 F3000
G1 X40.274 Y21.671 F3000
G1 X40.729 Y20.367 F3000
G1 X41.175 Y19.056 F3000
G1 X41.613 Y17.739 F3000
G1 X42.042 Y16.417 F3000
G1 X42.463 Y15.088 F3000
G1 X42.876 Y13.753 F3000
G1 X38.304 Y13.094 F3000
G1 Z5 F500
G0 X28.676 Y38.693
G1 Z0 F500
G1 X28.028 Y37.451 F3000
G1 X27.392 Y36.208 F3000
G1 X26.769 Y34.964 F3000
G1 X26.157 Y33.718 F3000
G1 X25.557 Y32.472 F3000
G1 X24.969 Y31.223 F3000
G1 X24.393 Y29.97 F3000
G1 X23.827 Y28.712 F3000
G1 X23.268 Y27.449 F3000
G1 X22.718 Y26.182 F3000
G1 X22.176 Y24.911 F3000
G1 X21.643 Y23.635 F3000
G1 X34.74 Y24.199 F3000
G1 X34.359 Y25.258 F3000
G1 X33.971 Y26.311 F3000
G1 X33.575 Y27.36 F3000
G1 X33.172 Y28.403 F3000
G1 X32.76 Y29.441 F3000
G1 X32.341 Y30.474 F3000
G1 X31.914 Y31.501 F3000
G1 X31.403 Y32.698 F3000
G1 X30.88 Y33.895 F3000
G1 X30.346 Y35.093 F3000
G1 X29.801 Y36.292 F3000
G1 X29.244 Y37.492 F3000
G1 X28.676 Y38.693 F3000
G1 Z5 F500
G0 X71.697 Y21.77
G1 Z0 F500
G1 X71.701 Y21.458 F3000
G1 X71.696 Y21.153 F3000
G1 X71.681 Y20.855 F3000
G1 X71.658 Y20.564 F3000
G1 X71.626 Y20.279 F3000
G1 X71.584 Y20.001 F3000
G1 X71.533 Y19.73 F3000
G1 X71.474 Y19.466 F3000
G1 X71.405 Y19.208 F3000
G1 X71.327 Y18.958 F3000
G1 X71.24 Y18.713 F3000
G1 X71.143 Y18.476 F3000
G1 X71.038 Y18.246 F3000
G1 X70.902 Y17.983 F3000
G1 X70.759 Y17.727 F3000
G1 X70.606 Y17.48 F3000
G1 X70.445 Y17.24 F3000
G1 X70.276 Y17.007 F3000
G1 X70.099 Y16.783 F3000
G1 X69.913 Y16.566 F3000
G1 X69.719 Y16.357 F3000
G1 X69.516 Y16.156 F3000
G1 X69.305 Y15.963 F3000
G1 X69.085 Y15.777 F3000
G1 X68.835 Y15.581 F3000
G1 X68.577 Y15.393 F3000
G1 X68.311 Y15.212 F3000
G1 X68.036 Y15.039 F3000
G1 X67.754 Y14.874 F3000
G1 X67.463 Y14.717 F3000
G1 X67.165 Y14.568 F3000
G1 X66.858 Y14.426 F3000
G1 X66.543 Y14.292 F3000
G1 X66.22 Y14.166 F3000
G1 X65.809 Y14.018 F3000
G1 X65.392 Y13.879 F3000
G1 X64.971 Y13.749 F3000
G1 X64.545 Y13.628 F3000
G1 X64.114 Y13.517 F3000
G1 X63.678 Y13.414 F3000
G1 X63.237 Y13.321 F3000
G1 X62.791 Y13.237 F3000
G1 X62.278 Y13.151 F3000
G1 X61.764 Y13.074 F3000
G1 X61.249 Y13.006 F3000
G1 X60.733 Y12.947 F3000
G1 X60.216 Y12.897 F3000
G1 X59.698 Y12.856 F3000
G1 X59.179 Y12.824 F3000
G1 X58.663 Y12.797 F3000
G1 X58.156 Y12.774 F3000
G1 X57.658 Y12.755 F3000
G1 X57.171 Y12.74 F3000
G1 X56.693 Y12.73 F3000
G1 X56.225 Y12.723 F3000
G1 X55.766 Y12.721 F3000
G1 X55.358 Y12.723 F3000
G1 X54.938 Y12.727 F3000
G1 X54.508 Y12.733 F3000
G1 X54.066 Y12.743 F3000
G1 X53.613 Y12.755 F3000
G1 X53.148 Y12.77 F3000
G1 X52.673 Y12.788 F3000
G1 X52.186 Y12.808 F3000
G1 X51.746 Y12.829 F3000
G1 X51.296 Y12.853 F3000
G1 X50.836 Y12.879 F3000
G1 X50.367 Y12.908 F3000
G1 X49.888 Y12.94 F3000
G1 X49.399 Y12.974 F3000
G1 X48.901 Y13.012 F3000
G1 X48.394 Y13.052 F3000
G1 X47.876 Y13.094 F3000
G1 X47.043 Y41.304 F3000
G1 X47.617 Y41.407 F3000
G1 X48.185 Y41.502 F3000
G1 X48.749 Y41.589 F3000
G1 X49.308 Y41.668 F3000
G1 X49.862 Y41.74 F3000
G1 X50.412 Y41.804 F3000
G1 X50.956 Y41.86 F3000
G1 X51.374 Y41.899 F3000
G1 X51.782 Y41.936 F3000
G1 X52.18 Y41.97 F3000
G1 X52.568 Y42.002 F3000
G1 X52.945 Y42.031 F3000
G1 X53.313 Y42.057 F3000
G1 X53.67 Y42.081 F3000
G1 X54.017 Y42.103 F3000
G1 X54.353 Y42.122 F3000
G1 X54.928 Y42.145 F3000
G1 X55.492 Y42.163 F3000
G1 X56.046 Y42.175 F3000
G1 X56.59 Y42.182 F3000
G1 X57.124 Y42.182 F3000
G1 X57.647 Y42.177 F3000
G1 X58.236 Y42.158 F3000
G1 X58.826 Y42.13 F3000
G1 X59.418 Y42.095 F3000
G1 X60.012 Y42.053 F3000
G1 X60.608 Y42.003 F3000
G1 X61.032 Y41.96 F3000
G1 X61.45 Y41.911 F3000
G1 X61.864 Y41.853 F3000
G1 X62.272 Y41.789 F3000
G1 X62.675 Y41.717 F3000
G1 X63.073 Y41.637 F3000
G1 X63.466 Y41.55 F3000
G1 X63.804 Y41.467 F3000
G1 X64.137 Y41.376 F3000
G1 X64.464 Y41.277 F3000
G1 X64.785 Y41.171 F3000
G1 X65.101 Y41.057 F3000
G1 X65.411 Y40.936 F3000
G1 X65.715 Y40.806 F3000
G1 X66.014 Y40.669 F3000
G1 X66.273 Y40.54 F3000
G1 X66.524 Y40.403 F3000
G1 X66.768 Y40.259 F3000
G1 X67.004 Y40.107 F3000
G1 X67.232 Y39.947 F3000
G1 X67.453 Y39.78 F3000
G1 X67.666 Y39.605 F3000
G1 X67.872 Y39.423 F3000
G1 X68.069 Y39.232 F3000
G1 X68.24 Y39.054 F3000
G1 X68.404 Y38.869 F3000
G1 X68.56 Y38.676 F3000
G1 X68.709 Y38.477 F3000
G1 X68.851 Y38.27 F3000
G1 X68.986 Y38.056 F3000
G1 X69.113 Y37.835 F3000
G1 X69.233 Y37.607 F3000
G1 X69.345 Y37.371 F3000
G1 X69.45 Y37.129 F3000
G1 X69.537 Y36.902 F3000
G1 X69.616 Y36.667 F3000
G1 X69.686 Y36.425 F3000
G1 X69.748 Y36.176 F3000
G1 X69.802 Y35.92 F3000
G1 X69.847 Y35.657 F3000
G1 X69.884 Y35.386 F3000
G1 X69.913 Y35.109 F3000
G1 X69.934 Y34.823 F3000
G1 X69.946 Y34.531 F3000
G1 X69.951 Y34.232 F3000
G1 X69.946 Y33.902 F3000
G1 X69.932 Y33.58 F3000
G1 X69.908 Y33.265 F3000
G1 X69.875 Y32.958 F3000
G1 X69.833 Y32.658 F3000
G1 X69.781 Y32.365 F3000
G1 X69.72 Y32.08 F3000
G1 X69.65 Y31.802 F3000
G1 X69.57 Y31.532 F3000
G1 X69.481 Y31.269 F3000
G1 X69.382 Y31.014 F3000
G1 X69.274 Y30.766 F3000
G1 X69.157 Y30.525 F3000
G1 X69.008 Y30.249 F3000
G1 X68.852 Y29.983 F3000
G1 X68.688 Y29.725 F3000
G1 X68.515 Y29.475 F3000
G1 X68.335 Y29.235 F3000
G1 X68.147 Y29.003 F3000
G1 X67.95 Y28.781 F3000
G1 X67.746 Y28.566 F3000
G1 X67.534 Y28.361 F3000
G1 X67.313 Y28.165 F3000
G1 X67.085 Y27.977 F3000
G1 X67.35 Y27.883 F3000
G1 X67.606 Y27.782 F3000
G1 X67.853 Y27.673 F3000
G1 X68.091 Y27.557 F3000
G1 X68.319 Y27.434 F3000
G1 X68.538 Y27.302 F3000
G1 X68.745 Y27.168 F3000
G1 X68.943 Y27.028 F3000
G1 X69.133 Y26.884 F3000
G1 X69.314 Y26.734 F3000
G1 X69.486 Y26.58 F3000
G1 X69.649 Y26.421 F3000
G1 X69.834 Y26.226 F3000
G1 X70.008 Y26.026 F3000
G1 X70.172 Y25.823 F3000
G1 X70.325 Y25.616 F3000
G1 X70.466 Y25.405 F3000
G1 X70.627 Y25.14 F3000
G1 X70.776 Y24.875 F3000
G1 X70.913 Y24.612 F3000
G1 X71.038 Y24.35 F3000
G1 X71.15 Y24.081 F3000
G1 X71.252 Y23.808 F3000
G1 X71.344 Y23.53 F3000
G1 X71.427 Y23.248 F3000
G1 X71.5 Y22.962 F3000
G1 X71.564 Y22.67 F3000
G1 X71.618 Y22.375 F3000
G1 X71.662 Y22.075 F3000
G1 X71.697 Y21.77 F3000
G1 Z5 F500
G0 X57.719 Y38.653
G1 Z0 F500
G1 X57.413 Y38.651 F3000
G1 X57.097 Y38.647 F3000
G1 X56.772 Y38.639 F3000
G1 X56.438 Y38.628 F3000
G1 X56.095 Y38.614 F3000
G1 X55.742 Y38.597 F3000
G1 X55.478 Y38.584 F3000
G1 X55.203 Y38.568 F3000
G1 X54.917 Y38.549 F3000
G1 X54.62 Y38.526 F3000
G1 X54.312 Y38.5 F3000
G1 X53.993 Y38.471 F3000
G1 X53.663 Y38.439 F3000
G1 X53.267 Y38.397 F3000
G1 X52.864 Y38.351 F3000
G1 X52.452 Y38.302 F3000
G1 X52.033 Y38.248 F3000
G1 X51.606 Y38.191 F3000
G1 X51.17 Y38.129 F3000
G1 X51.48 Y28.247 F3000
G1 X51.892 Y28.257 F3000
G1 X52.295 Y28.268 F3000
G1 X52.688 Y28.28 F3000
G1 X53.071 Y28.293 F3000
G1 X53.446 Y28.306 F3000
G1 X53.811 Y28.32 F3000
G1 X54.166 Y28.335 F3000
G1 X54.512 Y28.35 F3000
G1 X54.812 Y28.366 F3000
G1 X55.103 Y28.381 F3000
G1 X55.384 Y28.396 F3000
G1 X55.656 Y28.41 F3000
G1 X55.918 Y28.425 F3000
G1 X56.17 Y28.438 F3000
G1 X56.413 Y28.452 F3000
G1 X56.646 Y28.465 F3000
G1 X56.87 Y28.477 F3000
G1 X57.198 Y28.5 F3000
G1 X57.515 Y28.522 F3000
G1 X57.822 Y28.545 F3000
G1 X58.118 Y28.568 F3000
G1 X58.403 Y28.59 F3000
G1 X58.677 Y28.613 F3000
G1 X58.941 Y28.636 F3000
G1 X59.298 Y28.659 F3000
G1 X59.652 Y28.692 F3000
G1 X60.001 Y28.736 F3000
G1 X60.346 Y28.791 F3000
G1 X60.687 Y28.855 F3000
G1 X61.025 Y28.931 F3000
G1 X61.358 Y29.016 F3000
G1 X61.688 Y29.112 F3000
G1 X61.974 Y29.204 F3000
G1 X62.253 Y29.303 F3000
G1 X62.523 Y29.409 F3000
G1 X62.784 Y29.523 F3000
G1 X63.037 Y29.644 F3000
G1 X63.282 Y29.772 F3000
G1 X63.518 Y29.907 F3000
G1 X63.746 Y30.05 F3000
G1 X63.966 Y30.2 F3000
G1 X64.155 Y30.342 F3000
G1 X64.336 Y30.491 F3000
G1 X64.507 Y30.647 F3000
G1 X64.671 Y30.808 F3000
G1 X64.825 Y30.975 F3000
G1 X64.971 Y31.149 F3000
G1 X65.107 Y31.329 F3000
G1 X65.236 Y31.515 F3000
G1 X65.355 Y31.708 F3000
G1 X65.466 Y31.906 F3000
G1 X65.55 Y32.076 F3000
G1 X65.625 Y32.251 F3000
G1 X65.69 Y32.429 F3000
G1 X65.746 Y32.613 F3000
G1 X65.793 Y32.8 F3000
G1 X65.831 Y32.992 F3000
G1 X65.859 Y33.188 F3000
G1 X65.879 Y33.388 F3000
G1 X65.889 Y33.592 F3000
G1 X65.889 Y33.801 F3000
G1 X65.881 Y34.014 F3000
G1 X65.863 Y34.232 F3000
G1 X65.828 Y34.47 F3000
G1 X65.785 Y34.701 F3000
G1 X65.732 Y34.925 F3000
G1 X65.67 Y35.141 F3000
G1 X65.599 Y35.349 F3000
G1 X65.519 Y35.55 F3000
G1 X65.43 Y35.744 F3000
G1 X65.331 Y35.93 F3000
G1 X65.207 Y36.133 F3000
G1 X65.074 Y36.326 F3000
G1 X64.932 Y36.512 F3000
G1 X64.783 Y36.689 F3000
G1 X64.625 Y36.857 F3000
G1 X64.458 Y37.017 F3000
G1 X64.283 Y37.169 F3000
G1 X64.1 Y37.312 F3000
G1 X63.91 Y37.447 F3000
G1 X63.712 Y37.574 F3000
G1 X63.507 Y37.694 F3000
G1 X63.294 Y37.804 F3000
G1 X63.074 Y37.907 F3000
G1 X62.846 Y38.002 F3000
G1 X62.577 Y38.104 F3000
G1 X62.305 Y38.197 F3000
G1 X62.029 Y38.282 F3000
G1 X61.749 Y38.358 F3000
G1 X61.466 Y38.427 F3000
G1 X61.18 Y38.486 F3000
G1 X60.835 Y38.548 F3000
G1 X60.487 Y38.598 F3000
G1 X60.137 Y38.638 F3000
G1 X59.783 Y38.667 F3000
G1 X59.425 Y38.685 F3000
G1 X59.073 Y38.691 F3000
G1 X58.726 Y38.691 F3000
G1 X58.384 Y38.685 F3000
G1 X58.049 Y38.672 F3000
G1 X57.719 Y38.653 F3000
G1 Z5 F500
G0 X61.402 Y25.516
G1 Z0 F500
G1 X61.213 Y25.501 F3000
G1 X61.035 Y25.486 F3000
G1 X60.867 Y25.472 F3000
G1 X60.708 Y25.458 F3000
G1 X60.56 Y25.445 F3000
G1 X60.421 Y25.433 F3000
G1 X60.29 Y25.422 F3000
G1 X60.166 Y25.413 F3000
G1 X60.05 Y25.404 F3000
G1 X59.941 Y25.397 F3000
G1 X59.814 Y25.389 F3000
G1 X59.693 Y25.379 F3000
G1 X59.58 Y25.369 F3000
G1 X59.473 Y25.358 F3000
G1 X59.343 Y25.349 F3000
G1 X59.219 Y25.344 F3000
G1 X59.1 Y25.342 F3000
G1 X58.741 Y25.308 F3000
G1 X58.373 Y25.277 F3000
G1 X57.997 Y25.247 F3000
G1 X57.611 Y25.218 F3000
G1 X57.217 Y25.192 F3000
G1 X56.814 Y25.167 F3000
G1 X56.547 Y25.147 F3000
G1 X56.271 Y25.127 F3000
G1 X55.985 Y25.107 F3000
G1 X55.689 Y25.086 F3000
G1 X55.383 Y25.065 F3000
G1 X55.068 Y25.044 F3000
G1 X54.743 Y25.022 F3000
G1 X54.409 Y25 F3000
G1 X53.724 Y24.957 F3000
G1 X53.028 Y24.915 F3000
G1 X52.319 Y24.874 F3000
G1 X51.599 Y24.834 F3000
G1 X51.893 Y16.253 F3000
G1 X52.251 Y16.231 F3000
G1 X52.605 Y16.218 F3000
G1 X52.956 Y16.214 F3000
G1 X53.474 Y16.214 F3000
G1 X53.98 Y16.214 F3000
G1 X54.189 Y16.214 F3000
G1 X54.41 Y16.214 F3000
G1 X54.642 Y16.215 F3000
G1 X54.886 Y16.215 F3000
G1 X55.142 Y16.216 F3000
G1 X55.409 Y16.217 F3000
G1 X55.688 Y16.218 F3000
G1 X55.979 Y16.22 F3000
G1 X56.282 Y16.222 F3000
G1 X56.747 Y16.228 F3000
G1 X57.219 Y16.24 F3000
G1 X57.699 Y16.259 F3000
G1 X58.187 Y16.285 F3000
G1 X58.683 Y16.318 F3000
G1 X59.187 Y16.357 F3000
G1 X59.693 Y16.404 F3000
G1 X60.199 Y16.462 F3000
G1 X60.705 Y16.531 F3000
G1 X61.212 Y16.611 F3000
G1 X61.72 Y16.7 F3000
G1 X62.227 Y16.801 F3000
G1 X62.562 Y16.875 F3000
G1 X62.889 Y16.957 F3000
G1 X63.208 Y17.045 F3000
G1 X63.519 Y17.141 F3000
G1 X63.823 Y17.244 F3000
G1 X64.118 Y17.355 F3000
G1 X64.406 Y17.473 F3000
G1 X64.686 Y17.598 F3000
G1 X64.958 Y17.73 F3000
G1 X65.175 Y17.844 F3000
G1 X65.383 Y17.964 F3000
G1 X65.584 Y18.09 F3000
G1 X65.776 Y18.221 F3000
G1 X65.96 Y18.359 F3000
G1 X66.136 Y18.503 F3000
G1 X66.304 Y18.652 F3000
G1 X66.464 Y18.808 F3000
G1 X66.616 Y18.969 F3000
G1 X66.759 Y19.136 F3000
G1 X66.895 Y19.309 F3000
G1 X67.002 Y19.461 F3000
G1 X67.101 Y19.619 F3000
G1 X67.19 Y19.782 F3000
G1 X67.27 Y19.952 F3000
G1 X67.34 Y20.127 F3000
G1 X67.401 Y20.308 F3000
G1 X67.453 Y20.495 F3000
G1 X67.496 Y20.688 F3000
G1 X67.529 Y20.886 F3000
G1 X67.553 Y21.09 F3000
G1 X67.568 Y21.3 F3000
G1 X67.573 Y21.516 F3000
G1 X67.569 Y21.738 F3000
G1 X67.529 Y21.944 F3000
G1 X67.478 Y22.146 F3000
G1 X67.415 Y22.343 F3000
G1 X67.342 Y22.537 F3000
G1 X67.258 Y22.726 F3000
G1 X67.163 Y22.912 F3000
G1 X67.056 Y23.093 F3000
G1 X66.939 Y23.27 F3000
G1 X66.811 Y23.443 F3000
G1 X66.672 Y23.611 F3000
G1 X66.543 Y23.751 F3000
G1 X66.402 Y23.891 F3000
G1 X66.249 Y24.031 F3000
G1 X66.086 Y24.17 F3000
G1 X65.91 Y24.31 F3000
G1 X65.754 Y24.424 F3000
G1 X65.588 Y24.533 F3000
G1 X65.41 Y24.637 F3000
G1 X65.222 Y24.737 F3000
G1 X65.024 Y24.831 F3000
G1 X64.815 Y24.921 F3000
G1 X64.627 Y24.994 F3000
G1 X64.431 Y25.063 F3000
G1 X64.227 Y25.128 F3000
G1 X64.015 Y25.189 F3000
G1 X63.795 Y25.247 F3000
G1 X63.567 Y25.3 F3000
G1 X63.331 Y25.35 F3000
G1 X63.116 Y25.389 F3000
G1 X62.895 Y25.423 F3000
G1 X62.665 Y25.451 F3000
G1 X62.428 Y25.475 F3000
G1 X62.183 Y25.493 F3000
G1 X61.93 Y25.506 F3000
G1 X61.67 Y25.514 F3000
G1 X61.402 Y25.516 F3000
G1 Z5 F500
G0 X101.343 Y19.27
G1 Z0 F500
G1 X101.121 Y18.956 F3000
G1 X100.89 Y18.648 F3000
G1 X100.652 Y18.348 F3000
G1 X100.406 Y18.054 F3000
G1 X100.152 Y17.768 F3000
G1 X99.89 Y17.488 F3000
G1 X99.62 Y17.215 F3000
G1 X99.343 Y16.949 F3000
G1 X99.057 Y16.69 F3000
G1 X98.765 Y16.437 F3000
G1 X98.468 Y16.192 F3000
G1 X98.166 Y15.956 F3000
G1 X97.858 Y15.729 F3000
G1 X97.545 Y15.51 F3000
G1 X97.226 Y15.3 F3000
G1 X96.903 Y15.098 F3000
G1 X96.574 Y14.906 F3000
G1 X96.24 Y14.721 F3000
G1 X95.899 Y14.544 F3000
G1 X95.553 Y14.376 F3000
G1 X95.202 Y14.218 F3000
G1 X94.847 Y14.068 F3000
G1 X94.487 Y13.928 F3000
G1 X94.123 Y13.797 F3000
G1 X93.754 Y13.675 F3000
G1 X93.38 Y13.563 F3000
G1 X93.001 Y13.459 F3000
G1 X92.618 Y13.366 F3000
G1 X92.233 Y13.284 F3000
G1 X91.844 Y13.212 F3000
G1 X91.452 Y13.152 F3000
G1 X91.057 Y13.103 F3000
G1 X90.659 Y13.064 F3000
G1 X90.257 Y13.037 F3000
G1 X89.853 Y13.02 F3000
G1 X89.445 Y13.015 F3000
G1 X89.04 Y13.02 F3000
G1 X88.639 Y13.036 F3000
G1 X88.24 Y13.063 F3000
G1 X87.845 Y13.1 F3000
G1 X87.453 Y13.148 F3000
G1 X87.064 Y13.206 F3000
G1 X86.678 Y13.275 F3000
G1 X86.295 Y13.355 F3000
G1 X85.916 Y13.446 F3000
G1 X85.54 Y13.547 F3000
G1 X85.169 Y13.657 F3000
G1 X84.803 Y13.777 F3000
G1 X84.441 Y13.906 F3000
G1 X84.084 Y14.043 F3000
G1 X83.732 Y14.19 F3000
G1 X83.384 Y14.345 F3000
G1 X83.041 Y14.509 F3000
G1 X82.703 Y14.682 F3000
G1 X82.369 Y14.864 F3000
G1 X82.039 Y15.055 F3000
G1 X81.681 Y15.278 F3000
G1 X81.331 Y15.511 F3000
G1 X80.987 Y15.753 F3000
G1 X80.651 Y16.005 F3000
G1 X80.322 Y16.266 F3000
G1 X80 Y16.536 F3000
G1 X79.686 Y16.816 F3000
G1 X79.379 Y17.106 F3000
G1 X79.079 Y17.404 F3000
G1 X78.814 Y17.68 F3000
G1 X78.558 Y17.962 F3000
G1 X78.31 Y18.251 F3000
G1 X78.069 Y18.545 F3000
G1 X77.836 Y18.845 F3000
G1 X77.612 Y19.151 F3000
G1 X77.395 Y19.463 F3000
G1 X77.186 Y19.782 F3000
G1 X76.986 Y20.106 F3000
G1 X76.793 Y20.436 F3000
G1 X76.606 Y20.772 F3000
G1 X76.429 Y21.113 F3000
G1 X76.26 Y21.459 F3000
G1 X76.099 Y21.811 F3000
G1 X75.947 Y22.167 F3000
G1 X75.804 Y22.528 F3000
G1 X75.669 Y22.895 F3000
G1 X75.543 Y23.266 F3000
G1 X75.425 Y23.643 F3000
G1 X75.316 Y24.024 F3000
G1 X75.217 Y24.408 F3000
G1 X75.128 Y24.796 F3000
G1 X75.049 Y25.187 F3000
G1 X74.981 Y25.581 F3000
G1 X74.923 Y25.979 F3000
G1 X74.876 Y26.38 F3000
G1 X74.84 Y26.784 F3000
G1 X74.813 Y27.192 F3000
G1 X74.798 Y27.602 F3000
G1 X74.792 Y28.017 F3000
G1 X74.798 Y28.429 F3000
G1 X74.813 Y28.839 F3000
G1 X74.84 Y29.245 F3000
G1 X74.876 Y29.649 F3000
G1 X74.923 Y30.049 F3000
G1 X74.981 Y30.446 F3000
G1 X75.049 Y30.839 F3000
G1 X75.128 Y31.23 F3000
G1 X75.217 Y31.617 F3000
G1 X75.316 Y32.001 F3000
G1 X75.425 Y32.383 F3000
G1 X75.543 Y32.76 F3000
G1 X75.669 Y33.131 F3000
G1 X75.804 Y33.497 F3000
G1 X75.947 Y33.859 F3000
G1 X76.099 Y34.215 F3000
G1 X76.26 Y34.566 F3000
G1 X76.429 Y34.912 F3000
G1 X76.606 Y35.253 F3000
G1 X76.793 Y35.589 F3000
G1 X76.986 Y35.919 F3000
G1 X77.186 Y36.244 F3000
G1 X77.395 Y36.562 F3000
G1 X77.612 Y36.874 F3000
G1 X77.836 Y37.181 F3000
G1 X78.069 Y37.481 F3000
G1 X78.31 Y37.775 F3000
G1 X78.558 Y38.063 F3000
G1 X78.814 Y38.345 F3000
G1 X79.079 Y38.621 F3000
G1 X79.379 Y38.92 F3000
G1 X79.686 Y39.209 F3000
G1 X80 Y39.489 F3000
G1 X80.322 Y39.76 F3000
G1 X80.651 Y40.021 F3000
G1 X80.987 Y40.272 F3000
G1 X81.331 Y40.514 F3000
G1 X81.681 Y40.747 F3000
G1 X82.039 Y40.971 F3000
G1 X82.369 Y41.162 F3000
G1 X82.703 Y41.343 F3000
G1 X83.042 Y41.517 F3000
G1 X83.386 Y41.681 F3000
G1 X83.734 Y41.836 F3000
G1 X84.087 Y41.982 F3000
G1 X84.445 Y42.12 F3000
G1 X84.808 Y42.248 F3000
G1 X85.175 Y42.368 F3000
G1 X85.548 Y42.479 F3000
G1 X85.925 Y42.58 F3000
G1 X86.306 Y42.67 F3000
G1 X86.689 Y42.75 F3000
G1 X87.074 Y42.819 F3000
G1 X87.463 Y42.878 F3000
G1 X87.854 Y42.926 F3000
G1 X88.248 Y42.963 F3000
G1 X88.644 Y42.989 F3000
G1 X89.043 Y43.005 F3000
G1 X89.445 Y43.011 F3000
G1 X89.826 Y43.006 F3000
G1 X90.205 Y42.991 F3000
G1 X90.581 Y42.967 F3000
G1 X90.954 Y42.934 F3000
G1 X91.325 Y42.891 F3000
G1 X91.692 Y42.838 F3000
G1 X92.057 Y42.775 F3000
G1 X92.419 Y42.703 F3000
G1 X92.779 Y42.622 F3000
G1 X93.179 Y42.521 F3000
G1 X93.575 Y42.41 F3000
G1 X93.965 Y42.288 F3000
G1 X94.35 Y42.155 F3000
G1 X94.731 Y42.012 F3000
G1 X95.106 Y41.858 F3000
G1 X95.477 Y41.694 F3000
G1 X95.843 Y41.518 F3000
G1 X96.203 Y41.335 F3000
G1 X96.557 Y41.141 F3000
G1 X96.905 Y40.938 F3000
G1 X97.248 Y40.725 F3000
G1 X97.584 Y40.501 F3000
G1 X97.914 Y40.268 F3000
G1 X98.239 Y40.025 F3000
G1 X98.557 Y39.772 F3000
G1 X98.867 Y39.512 F3000
G1 X99.169 Y39.245 F3000
G1 X99.463 Y38.971 F3000
G1 X99.75 Y38.689 F3000
G1 X100.029 Y38.399 F3000
G1 X100.3 Y38.102 F3000
G1 X100.564 Y37.798 F3000
G1 X100.819 Y37.486 F3000
G1 X97.859 Y35.065 F3000
G1 X97.622 Y35.35 F3000
G1 X97.377 Y35.626 F3000
G1 X97.125 Y35.892 F3000
G1 X96.865 Y36.149 F3000
G1 X96.597 Y36.397 F3000
G1 X96.322 Y36.636 F3000
G1 X96.04 Y36.866 F3000
G1 X95.749 Y37.086 F3000
G1 X95.451 Y37.297 F3000
G1 X95.146 Y37.499 F3000
G1 X94.833 Y37.692 F3000
G1 X94.512 Y37.875 F3000
G1 X94.184 Y38.05 F3000
G1 X93.894 Y38.192 F3000
G1 X93.601 Y38.324 F3000
G1 X93.303 Y38.447 F3000
G1 X93.002 Y38.56 F3000
G1 X92.698 Y38.663 F3000
G1 X92.389 Y38.756 F3000
G1 X92.077 Y38.839 F3000
G1 X91.761 Y38.913 F3000
G1 X91.441 Y38.977 F3000
G1 X91.118 Y39.03 F3000
G1 X90.791 Y39.075 F3000
G1 X90.46 Y39.109 F3000
G1 X90.125 Y39.133 F3000
G1 X89.787 Y39.148 F3000
G1 X89.445 Y39.153 F3000
G1 X89.101 Y39.148 F3000
G1 X88.761 Y39.132 F3000
G1 X88.423 Y39.106 F3000
G1 X88.09 Y39.07 F3000
G1 X87.759 Y39.023 F3000
G1 X87.432 Y38.965 F3000
G1 X87.109 Y38.898 F3000
G1 X86.789 Y38.819 F3000
G1 X86.472 Y38.731 F3000
G1 X86.158 Y38.632 F3000
G1 X85.848 Y38.522 F3000
G1 X85.541 Y38.402 F3000
G1 X85.238 Y38.272 F3000
G1 X84.916 Y38.121 F3000
G1 X84.601 Y37.961 F3000
G1 X84.292 Y37.792 F3000
G1 X83.989 Y37.615 F3000
G1 X83.694 Y37.429 F3000
G1 X83.405 Y37.234 F3000
G1 X83.122 Y37.031 F3000
G1 X82.846 Y36.819 F3000
G1 X82.577 Y36.598 F3000
G1 X82.315 Y36.368 F3000
G1 X82.059 Y36.13 F3000
G1 X81.809 Y35.883 F3000
G1 X81.569 Y35.627 F3000
G1 X81.337 Y35.363 F3000
G1 X81.114 Y35.093 F3000
G1 X80.899 Y34.816 F3000
G1 X80.693 Y34.531 F3000
G1 X80.496 Y34.24 F3000
G1 X80.307 Y33.941 F3000
G1 X80.126 Y33.636 F3000
G1 X79.955 Y33.323 F3000
G1 X79.792 Y33.003 F3000
G1 X79.637 Y32.676 F3000
G1 X79.491 Y32.343 F3000
G1 X79.367 Y32.03 F3000
G1 X79.252 Y31.713 F3000
G1 X79.148 Y31.394 F3000
G1 X79.053 Y31.071 F3000
G1 X78.969 Y30.745 F3000
G1 X78.894 Y30.415 F3000
G1 X78.829 Y30.082 F3000
G1 X78.775 Y29.746 F3000
G1 X78.73 Y29.407 F3000
G1 X78.695 Y29.064 F3000
G1 X78.67 Y28.718 F3000
G1 X78.655 Y28.369 F3000
G1 X78.65 Y28.017 F3000
G1 X78.655 Y27.663 F3000
G1 X78.67 Y27.313 F3000
G1 X78.695 Y26.965 F3000
G1 X78.73 Y26.622 F3000
G1 X78.775 Y26.281 F3000
G1 X78.829 Y25.944 F3000
G1 X78.894 Y25.61 F3000
G1 X78.969 Y25.279 F3000
G1 X79.053 Y24.952 F3000
G1 X79.148 Y24.628 F3000
G1 X79.252 Y24.307 F3000
G1 X79.367 Y23.989 F3000
G1 X79.491 Y23.675 F3000
G1 X79.637 Y23.339 F3000
G1 X79.792 Y23.01 F3000
G1 X79.955 Y22.688 F3000
G1 X80.126 Y22.374 F3000
G1 X80.307 Y22.067 F3000
G1 X80.496 Y21.768 F3000
G1 X80.693 Y21.476 F3000
G1 X80.899 Y21.191 F3000
G1 X81.114 Y20.914 F3000
G1 X81.337 Y20.644 F3000
G1 X81.569 Y20.382 F3000
G1 X81.809 Y20.127 F3000
G1 X82.059 Y19.879 F3000
G1 X82.315 Y19.639 F3000
G1 X82.577 Y19.409 F3000
G1 X82.846 Y19.187 F3000
G1 X83.122 Y18.974 F3000
G1 X83.405 Y18.77 F3000
G1 X83.694 Y18.574 F3000
G1 X83.989 Y18.388 F3000
G1 X84.292 Y18.21 F3000
G1 X84.601 Y18.041 F3000
G1 X84.916 Y17.881 F3000
G1 X85.238 Y17.73 F3000
G1 X85.541 Y17.599 F3000
G1 X85.848 Y17.479 F3000
G1 X86.158 Y17.37 F3000
G1 X86.472 Y17.271 F3000
G1 X86.789 Y17.182 F3000
G1 X87.109 Y17.104 F3000
G1 X87.432 Y17.036 F3000
G1 X87.759 Y16.979 F3000
G1 X88.09 Y16.932 F3000
G1 X88.423 Y16.896 F3000
G1 X88.761 Y16.87 F3000
G1 X89.101 Y16.854 F3000
G1 X89.445 Y16.849 F3000
G1 X89.783 Y16.854 F3000
G1 X90.118 Y16.87 F3000
G1 X90.45 Y16.896 F3000
G1 X90.779 Y16.932 F3000
G1 X91.104 Y16.979 F3000
G1 X91.427 Y17.036 F3000
G1 X91.747 Y17.104 F3000
G1 X92.064 Y17.182 F3000
G1 X92.376 Y17.268 F3000
G1 X92.683 Y17.362 F3000
G1 X92.986 Y17.465 F3000
G1 X93.285 Y17.577 F3000
G1 X93.579 Y17.697 F3000
G1 X93.87 Y17.826 F3000
G1 X94.156 Y17.964 F3000
G1 X94.438 Y18.111 F3000
G1 X94.752 Y18.288 F3000
G1 X95.06 Y18.476 F3000
G1 X95.363 Y18.673 F3000
G1 X95.658 Y18.881 F3000
G1 X95.948 Y19.098 F3000
G1 X96.232 Y19.326 F3000
G1 X96.509 Y19.563 F3000
G1 X96.779 Y19.812 F3000
G1 X97.04 Y20.068 F3000
G1 X97.292 Y20.332 F3000
G1 X97.534 Y20.603 F3000
G1 X97.768 Y20.881 F3000
G1 X97.993 Y21.167 F3000
G1 X98.208 Y21.46 F3000
G1 X101.343 Y19.27 F3000
G1 Z5 F500
M114
M400